OBJECT_NAME,OBJECT_ID,EPOCH,MEAN_MOTION,ECCENTRICITY,INCLINATION,RA_OF_ASC_NODE,ARG_OF_PERICENTER,MEAN_ANOMALY,EPHEMERIS_TYPE,CLASSIFICATION_TYPE,NORAD_CAT_ID,ELEMENT_SET_NO,REV_AT_EPOCH,BSTAR,MEAN_MOTION_DOT,MEAN_MOTION_DDOT
QIANFAN-172,2026-124H,2026-06-30T21:59:12.858720,14.19640438,.00037429,88.9986,0.4750,128.8534,231.2990,0,U,69389,999,376,.38599055E-4,.96E-6,0
QIANFAN-173,2026-124J,2026-06-30T21:43:34.544352,14.20511756,.00038966,88.9985,0.4735,120.9353,239.2220,0,U,69390,999,376,.36946954E-4,.94E-6,0
QIANFAN-174,2026-124K,2026-06-30T21:34:06.245760,14.20880552,.00041829,88.9985,0.4724,125.5269,234.6313,0,U,69391,999,376,.46890021E-4,.116E-5,0
QIANFAN-175,2026-124L,2026-06-30T23:08:35.806848,14.21341893,.00049158,88.9985,0.4636,136.6044,223.5535,0,U,69392,999,377,.38372522E-4,.98E-6,0
QIANFAN-176,2026-124M,2026-06-30T22:59:19.917888,14.21843259,.00038833,88.9985,0.4627,140.3626,219.7850,0,U,69393,999,377,.41954608E-4,.107E-5,0
QIANFAN-177,2026-124N,2026-06-30T22:44:21.994656,14.22732671,.00047724,88.9985,0.4611,118.9529,241.2142,0,U,69394,999,377,.41371867E-4,.107E-5,0
QIANFAN-178,2026-124P,2026-06-30T22:51:37.516320,14.22276314,.00041706,88.9985,0.4618,127.9983,232.1586,0,U,69395,999,377,.43183363E-4,.11E-5,0
QIANFAN-179,2026-124Q,2026-06-30T22:37:14.949696,14.23099316,.0004146,88.9985,0.4602,124.8764,235.2818,0,U,69396,999,377,.3861958E-4,.102E-5,0
QIANFAN-180,2026-124R,2026-06-30T22:29:28.392288,14.23621115,.00045087,88.9985,0.4595,133.0807,227.0763,0,U,69397,999,377,.46454897E-4,.12E-5,0
QIANFAN-181,2026-124S,2026-06-30T22:59:04.584480,14.16651119,.00030323,88.9985,0.4813,103.7668,256.3857,0,U,69398,999,376,.36065599E-4,.86E-6,0
QIANFAN-182,2026-124T,2026-06-30T22:16:49.020960,14.18740544,.00035262,88.9985,0.4769,121.2189,238.9346,0,U,69399,999,376,.41422699E-4,.1E-5,0
CZ-6A R/B,2026-124U,2026-06-30T23:14:26.521728,14.57309887,.00983427,89.0258,0.3434,15.1543,345.2576,0,U,69400,999,386,.52333731E-4,.271E-5,0
QIANFAN-183,2026-125A,2026-06-30T21:40:56.078112,14.16468546,.001568,88.9955,278.8971,132.5296,227.7219,0,U,69401,999,364,.19418945E-3,.401E-5,0
QIANFAN-184,2026-125B,2026-06-30T21:27:28.147392,14.16888661,.001651,88.9956,278.8960,126.9767,233.2935,0,U,69402,999,364,.19493132E-3,.405E-5,0
QIANFAN-185,2026-125C,2026-06-30T21:37:48.502848,14.16093457,.00173631,88.9956,278.8969,127.4037,232.8735,0,U,69403,999,364,.19850324E-3,.407E-5,0
QIANFAN-186,2026-125D,2026-06-30T22:55:10.504416,14.17439633,.0015802,88.9956,278.8866,128.2100,232.0515,0,U,69404,999,365,.19345005E-3,.407E-5,0
QIANFAN-187,2026-125E,2026-06-30T22:40:11.263584,14.18350355,.00163221,88.9956,278.8848,129.2083,231.0558,0,U,69405,999,365,.19149883E-3,.409E-5,0
QIANFAN-188,2026-125F,2026-06-30T22:21:38.494656,14.19442741,.00163336,88.9955,278.8827,132.5877,227.6694,0,U,69406,999,365,.19570668E-3,.427E-5,0
QIANFAN-189,2026-125G,2026-06-30T22:30:06.136128,14.18761594,.00155573,88.9956,278.8838,130.1576,230.0979,0,U,69407,999,365,.18918109E-3,.408E-5,0
QIANFAN-190,2026-125H,2026-06-30T22:22:11.048448,14.19224637,.00163546,88.9956,278.8831,131.6512,228.6081,0,U,69408,999,365,.18768197E-3,.408E-5,0
QIANFAN-191,2026-125J,2026-06-30T22:05:45.603744,14.20096152,.00157585,88.9956,278.8811,130.6019,229.6545,0,U,69409,999,365,.19497297E-3,.43E-5,0
QIANFAN-192,2026-125K,2026-06-30T21:57:28.029600,14.20522153,.00166201,88.9956,278.8805,130.8824,229.3810,0,U,69410,999,365,.1941158E-3,.432E-5,0
QIANFAN-193,2026-125L,2026-06-30T21:47:26.550816,14.20964792,.00164993,88.9956,278.8793,131.2416,229.0199,0,U,69411,999,365,.19882411E-3,.445E-5,0
QIANFAN-194,2026-125M,2026-06-30T21:39:52.439328,14.21406518,.00158034,88.9956,278.8785,134.7522,225.4958,0,U,69412,999,364,.19747293E-3,.446E-5,0
QIANFAN-195,2026-125N,2026-06-30T21:32:52.032480,14.21803890,.00169953,88.9956,278.8778,133.4044,226.8565,0,U,69413,999,365,.19380608E-3,.441E-5,0
QIANFAN-196,2026-125P,2026-06-30T21:24:28.412064,14.22298973,.00171093,88.9957,278.8769,133.7970,226.4640,0,U,69414,999,365,.19056596E-3,.438E-5,0
QIANFAN-197,2026-125Q,2026-06-30T22:59:01.914720,14.22743503,.00153793,88.9956,278.8681,130.8221,229.4308,0,U,69415,999,365,.19275921E-3,.447E-5,0
QIANFAN-198,2026-125R,2026-06-30T21:26:35.115072,14.22070120,.00156808,88.9956,278.8771,130.4897,229.7664,0,U,69416,999,365,.19274287E-3,.441E-5,0
QIANFAN-199,2026-125S,2026-06-30T22:45:54.979200,14.23633864,.00174187,88.9956,278.8667,131.0687,229.2014,0,U,69417,999,366,.19525089E-3,.46E-5,0
QIANFAN-200,2026-125T,2026-06-30T22:12:54.849312,14.19643678,.00164324,88.9956,278.8819,129.4057,230.8591,0,U,69418,999,365,.1967573E-3,.43E-5,0
CZ-8 R/B,2026-125U,2026-06-30T21:22:42.016512,14.39871945,.00694869,88.9977,278.8006,36.9464,323.6493,0,U,69419,999,369,.3154515E-4,.118E-5,0
STARLINK-37537,2026-126A,2026-06-30T03:11:52.533888,15.75165301,.00009784,97.2831,41.7450,116.6810,243.4555,0,U,69420,999,478,.12009941E-2,.182694E-2,0
STARLINK-37585,2026-126B,2026-06-30T13:36:59.576544,15.75291071,.00015502,97.2834,42.2272,111.8854,248.2576,0,U,69421,999,485,.17741152E-2,.274368E-2,0
STARLINK-37573,2026-126C,2026-06-30T03:16:28.101504,15.75168017,.00045559,97.2811,41.7402,55.4165,304.7530,0,U,69422,999,478,.13978844E-2,.213546E-2,0
STARLINK-37820,2026-126D,2026-06-30T22:00:01.999584,15.75201422,.00013172,97.2841,42.6769,100.2524,277.4922,0,U,69423,999,492,-.45231378E-3,-.67101E-3,0
STARLINK-37822,2026-126E,2026-06-30T04:01:10.821504,15.75183837,.00010667,97.2837,41.8516,90.8642,269.2746,0,U,69424,999,479,.12490845E-2,.190339E-2,0
STARLINK-37836,2026-126F,2026-06-30T22:00:01.999584,15.75199056,.00012409,97.2845,42.6840,104.1918,289.5488,0,U,69425,999,492,-.42631642E-3,-.63273E-3,0
STARLINK-37850,2026-126G,2026-06-30T22:00:01.999584,15.75181066,.00013798,97.2841,42.6732,91.8058,273.9470,0,U,69426,999,497,-.1230699E-3,-.1844E-3,0
STARLINK-37823,2026-126H,2026-06-30T13:19:12.368928,15.75270761,.00007571,97.2839,42.2441,102.0597,258.0753,0,U,69427,999,485,.16223791E-2,.249951E-2,0
STARLINK-37834,2026-126J,2026-06-30T02:51:02.938464,15.75280316,.0001485,97.2833,41.7680,51.9662,308.1737,0,U,69428,999,478,.14650113E-2,.225122E-2,0
STARLINK-37857,2026-126K,2026-06-30T02:34:47.148960,15.75311602,.0001003,97.2829,41.7814,74.9010,285.2366,0,U,69429,999,478,.18688002E-2,.289807E-2,0
STARLINK-37866,2026-126L,2026-06-30T22:00:01.999584,15.75189519,.00014747,97.2847,42.6897,92.1677,313.5715,0,U,69430,999,497,-.18089058E-3,-.27025E-3,0
STARLINK-37555,2026-126M,2026-06-30T22:00:01.999584,15.75193300,.00013375,97.2836,42.6587,97.7793,235.9750,0,U,69431,999,497,-.41317151E-3,-.61325E-3,0
STARLINK-37870,2026-126N,2026-06-30T22:00:01.999584,15.75201634,.00012105,97.2841,42.6677,93.6110,260.1361,0,U,69432,999,492,-.32650076E-3,-.48577E-3,0
STARLINK-37872,2026-126P,2026-06-30T21:41:36.724992,15.80124521,.00037905,97.2833,42.6874,192.6787,167.4386,0,U,69433,999,491,.20838653E-2,.405261E-2,0
STARLINK-37815,2026-126Q,2026-06-30T03:02:12.549696,15.75274020,.00024761,97.2833,41.7543,180.1986,179.9278,0,U,69434,999,478,-.19076727E-3,-.28597E-3,0
STARLINK-37801,2026-126R,2026-06-30T13:22:15.269088,15.75293426,.00011203,97.2833,42.2419,107.9812,252.1576,0,U,69435,999,490,.18026544E-2,.278965E-2,0
STARLINK-37800,2026-126S,2026-06-30T13:25:18.232320,15.75289925,.00013767,97.2828,42.2376,110.4338,249.7075,0,U,69436,999,485,.18035894E-2,.27907E-2,0
STARLINK-37792,2026-126T,2026-06-30T17:06:54.999648,15.80070124,.00008245,97.2817,42.4869,142.4018,217.7307,0,U,69437,999,493,.12484212E-2,.237431E-2,0
STARLINK-37783,2026-126U,2026-06-30T22:00:01.999584,15.75152305,.00015539,97.2842,42.6991,91.1448,336.6130,0,U,69438,999,497,.11051166E-3,.16359E-3,0
STARLINK-37771,2026-126V,2026-06-30T03:08:19.652928,15.75163982,.00023915,97.2819,41.7493,62.8171,297.3338,0,U,69439,999,478,.10738846E-2,.162966E-2,0
STARLINK-37747,2026-126W,2026-06-30T22:12:50.405760,15.75233391,.00018483,97.2832,42.6586,81.7671,278.3803,0,U,69440,999,491,.10516066E-2,.16E-2,0
STARLINK-37629,2026-127A,2026-06-30T22:00:01.999584,15.75220308,.00009596,53.1575,194.1790,107.2731,80.2963,0,U,69443,999,485,.50520014E-4,.7105E-4,0
STARLINK-37509,2026-127B,2026-06-30T21:06:23.749056,15.75377172,.00012274,53.1585,194.3164,133.2732,226.8391,0,U,69444,999,356,.24195456E-2,.390227E-2,0
STARLINK-37641,2026-127C,2026-06-30T22:17:40.552512,15.75284739,.00006199,53.1572,193.9078,59.3526,300.7556,0,U,69445,999,357,.10299084E-2,.160585E-2,0
STARLINK-37522,2026-127D,2026-06-30T21:05:55.379616,15.75338255,.00012632,53.1591,194.3137,134.0094,226.1030,0,U,69446,999,356,.18300907E-2,.291016E-2,0
STARLINK-37640,2026-127E,2026-06-30T22:00:01.999584,15.75204056,.0000989,53.1584,193.8092,87.5720,280.2800,0,U,69447,999,485,.21635887E-3,.32603E-3,0
STARLINK-37572,2026-127F,2026-06-30T22:24:41.047488,15.75270763,.00011517,53.1586,193.9392,35.5185,324.5912,0,U,69448,999,357,.92505589E-3,.143794E-2,0
STARLINK-37643,2026-127G,2026-06-30T22:31:13.274112,15.75271070,.00014827,53.1589,193.9690,22.3000,337.8085,0,U,69449,999,357,.12197595E-2,.19088E-2,0
STARLINK-37601,2026-127H,2026-06-30T22:30:44.827776,15.75262467,.00012159,53.1587,193.9665,31.3061,328.8031,0,U,69450,999,357,.11039805E-2,.172252E-2,0
STARLINK-37578,2026-127J,2026-06-30T22:11:08.150496,15.75287115,.00010024,53.1561,193.8751,85.4368,274.6767,0,U,69451,999,357,.10319088E-2,.160921E-2,0
STARLINK-37577,2026-127K,2026-06-30T21:51:32.094432,15.75357622,.00006644,53.1590,193.7853,65.7537,294.3552,0,U,69452,999,357,.20950645E-2,.335314E-2,0
STARLINK-37500,2026-127L,2026-06-30T22:05:04.643232,15.75345425,.00011648,53.1564,193.8477,121.5390,238.5744,0,U,69453,999,357,.18593613E-2,.29595E-2,0
STARLINK-37575,2026-127M,2026-06-30T21:45:28.323648,15.75279610,.00008489,53.1592,193.7572,66.7151,293.3959,0,U,69454,999,357,.88892666E-3,.138112E-2,0
STARLINK-37642,2026-127N,2026-06-30T22:11:36.806784,15.75292001,.00010047,53.1560,193.8768,57.2908,302.8209,0,U,69455,999,357,.11280947E-2,.176343E-2,0
